TIANMU-1 08             
1 57400U 23101B   26066.00237819  .00000346  00000+0  14775-4 0  9993
2 57400  97.2717 118.7901 0006380 134.2174 225.9592 15.29204229146020
STARLINK-31541          
1 59633U 24082C   26068.22898730 -.00000803  00000+0 -19671-4 0  9993
2 59633  42.9989 135.2917 0001002 183.1958 176.8888 15.27575490105013
