[{"OBJECT_NAME":"TIANMU-1 08","OBJECT_ID":"2023-101B","EPOCH":"2026-03-07T00:03:25.475616","MEAN_MOTION":15.29204229,"ECCENTRICITY":0.00063808,"INCLINATION":97.2717,"RA_OF_ASC_NODE":118.7901,"ARG_OF_PERICENTER":134.2174,"MEAN_ANOMALY":225.9592,"EPHEMERIS_TYPE":0,"CLASSIFICATION_TYPE":"U","NORAD_CAT_ID":57400,"ELEMENT_SET_NO":999,"REV_AT_EPOCH":14602,"BSTAR":1.4774513e-5,"MEAN_MOTION_DOT":3.46e-6,"MEAN_MOTION_DDOT":0},{"OBJECT_NAME":"STARLINK-31541","OBJECT_ID":"2024-082C","EPOCH":"2026-03-09T05:29:44.502720","MEAN_MOTION":15.2757549,"ECCENTRICITY":0.00010025,"INCLINATION":42.9989,"RA_OF_ASC_NODE":135.2917,"ARG_OF_PERICENTER":183.1958,"MEAN_ANOMALY":176.8888,"EPHEMERIS_TYPE":0,"CLASSIFICATION_TYPE":"U","NORAD_CAT_ID":59633,"ELEMENT_SET_NO":999,"REV_AT_EPOCH":10501,"BSTAR":-1.9670547e-5,"MEAN_MOTION_DOT":-8.03e-6,"MEAN_MOTION_DDOT":0}]
